STARLINK-36511          
1 67451U 26008G   26078.59715844  .00011359  00000+0  42158-3 0  9996
2 67451  43.0014 149.6085 0001567 271.8300  88.2373 15.27587532 11086
STARLINK-36524          
1 67452U 26008H   26078.53948153  .00016263  00000+0  59895-3 0  9997
2 67452  43.0005 150.0304 0001971 275.4271  84.6356 15.27594578 11071
STARLINK-36518          
1 67453U 26008J   26078.51891403  .00021735  00000+0  79667-3 0  9990
2 67453  43.0093 149.8502 0001793 251.5125 108.5532 15.27595062 11071
STARLINK-36517          
1 67454U 26008K   26078.59072905  .00004617  00000+0  17726-3 0  9995
2 67454  43.0045 149.5609 0001433 270.3620  89.7067 15.27568184 11083
STARLINK-36516          
1 67455U 26008L   26078.68809383  .00013710  00000+0  50654-3 0  9995
2 67455  43.0005 148.5582 0001116 280.1124  79.9601 15.27596917 11108
STARLINK-36493          
1 67456U 26008M   26078.56116824  .00008774  00000+0  32777-3 0  9994
2 67456  43.0011 149.3270 0001382 276.5021  83.5673 15.27600080 11083
STARLINK-36529          
1 67457U 26008N   26078.52148456  .00014220  00000+0  52489-3 0  9992
2 67457  43.0010 149.8905 0001459 261.1663  98.9024 15.27603680 11078
STARLINK-36528          
1 67458U 26008P   26078.54318745  .00018651  00000+0  68554-3 0  9997
2 67458  42.9985 149.1788 0001353 268.6739  91.3957 15.27581706 11086
STARLINK-36546          
1 67459U 26008Q   26077.55483263  .00019734  00000+0  72445-3 0  9993
2 67459  42.9998 155.5365 0001272 294.0634  66.0084 15.27592223 10928
STARLINK-36523          
1 67460U 26008R   26078.59458611  .00016046  00000+0  59113-3 0  9999
2 67460  43.0027 149.5793 0001679 261.3665  98.6996 15.27591645 11083
STARLINK-36522          
1 67461U 26008S   26077.91888391  .00024772  00000+0  90689-3 0  9995
2 67461  43.0002 153.1104 0000215 357.6892   2.3958 15.27572813 10984
STARLINK-36504          
1 67462U 26008T   26078.56888469  .00017237  00000+0  63419-3 0  9993
2 67462  43.0015 149.3770 0001364 276.5329  83.5367 15.27593248 11087
STARLINK-36505          
1 67463U 26008U   26077.91117064  .00010570  00000+0  39299-3 0  9990
2 67463  42.9978 153.0396 0000537  13.5600 346.5266 15.27586014 10983
STARLINK-36421          
1 67464U 26008V   26078.61242813  .00013053  00000+0  48302-3 0  9994
2 67464  43.0005 148.8498 0001501 272.9767  87.0913 15.27578530 11092
STARLINK-36437          
1 67465U 26008W   26078.61998168  .00042186  00000+0  15325-2 0  9993
2 67465  43.0025 148.8988 0002007 249.9682 110.0953 15.27607821 11098
STARLINK-36520          
1 67466U 26008X   26077.61764506  .00020006  00000+0  73416-3 0  9993
2 67466  43.0014 155.1472 0001567 260.0950  99.9725 15.27596660 10930
