[{"OBJECT_NAME":"STARLINK-36511","OBJECT_ID":"2026-008G","EPOCH":"2026-03-19T14:19:54.489216","MEAN_MOTION":15.27587532,"ECCENTRICITY":0.0001567,"INCLINATION":43.0014,"RA_OF_ASC_NODE":149.6085,"ARG_OF_PERICENTER":271.83,"MEAN_ANOMALY":88.2373,"EPHEMERIS_TYPE":0,"CLASSIFICATION_TYPE":"U","NORAD_CAT_ID":67451,"ELEMENT_SET_NO":999,"REV_AT_EPOCH":1108,"BSTAR":0.00042158,"MEAN_MOTION_DOT":0.00011359,"MEAN_MOTION_DDOT":0},{"OBJECT_NAME":"STARLINK-36524","OBJECT_ID":"2026-008H","EPOCH":"2026-03-19T12:56:51.204192","MEAN_MOTION":15.27594578,"ECCENTRICITY":0.0001971,"INCLINATION":43.0005,"RA_OF_ASC_NODE":150.0304,"ARG_OF_PERICENTER":275.4271,"MEAN_ANOMALY":84.6356,"EPHEMERIS_TYPE":0,"CLASSIFICATION_TYPE":"U","NORAD_CAT_ID":67452,"ELEMENT_SET_NO":999,"REV_AT_EPOCH":1107,"BSTAR":0.00059895,"MEAN_MOTION_DOT":0.00016263,"MEAN_MOTION_DDOT":0},{"OBJECT_NAME":"STARLINK-36518","OBJECT_ID":"2026-008J","EPOCH":"2026-03-19T12:27:14.172192","MEAN_MOTION":15.27595062,"ECCENTRICITY":0.0001793,"INCLINATION":43.0093,"RA_OF_ASC_NODE":149.8502,"ARG_OF_PERICENTER":251.5125,"MEAN_ANOMALY":108.5532,"EPHEMERIS_TYPE":0,"CLASSIFICATION_TYPE":"U","NORAD_CAT_ID":67453,"ELEMENT_SET_NO":999,"REV_AT_EPOCH":1107,"BSTAR":0.00079667,"MEAN_MOTION_DOT":0.00021735,"MEAN_MOTION_DDOT":0},{"OBJECT_NAME":"STARLINK-36517","OBJECT_ID":"2026-008K","EPOCH":"2026-03-19T14:10:38.989920","MEAN_MOTION":15.27568184,"ECCENTRICITY":0.0001433,"INCLINATION":43.0045,"RA_OF_ASC_NODE":149.5609,"ARG_OF_PERICENTER":270.362,"MEAN_ANOMALY":89.7067,"EPHEMERIS_TYPE":0,"CLASSIFICATION_TYPE":"U","NORAD_CAT_ID":67454,"ELEMENT_SET_NO":999,"REV_AT_EPOCH":1108,"BSTAR":0.00017726,"MEAN_MOTION_DOT":4.617e-5,"MEAN_MOTION_DDOT":0},{"OBJECT_NAME":"STARLINK-36516","OBJECT_ID":"2026-008L","EPOCH":"2026-03-19T16:30:51.306912","MEAN_MOTION":15.27596917,"ECCENTRICITY":0.0001116,"INCLINATION":43.0005,"RA_OF_ASC_NODE":148.5582,"ARG_OF_PERICENTER":280.1124,"MEAN_ANOMALY":79.9601,"EPHEMERIS_TYPE":0,"CLASSIFICATION_TYPE":"U","NORAD_CAT_ID":67455,"ELEMENT_SET_NO":999,"REV_AT_EPOCH":1110,"BSTAR":0.00050654,"MEAN_MOTION_DOT":0.0001371,"MEAN_MOTION_DDOT":0},{"OBJECT_NAME":"STARLINK-36493","OBJECT_ID":"2026-008M","EPOCH":"2026-03-19T13:28:04.935936","MEAN_MOTION":15.2760008,"ECCENTRICITY":0.0001382,"INCLINATION":43.0011,"RA_OF_ASC_NODE":149.327,"ARG_OF_PERICENTER":276.5021,"MEAN_ANOMALY":83.5673,"EPHEMERIS_TYPE":0,"CLASSIFICATION_TYPE":"U","NORAD_CAT_ID":67456,"ELEMENT_SET_NO":999,"REV_AT_EPOCH":1108,"BSTAR":0.00032777,"MEAN_MOTION_DOT":8.774e-5,"MEAN_MOTION_DDOT":0},{"OBJECT_NAME":"STARLINK-36529","OBJECT_ID":"2026-008N","EPOCH":"2026-03-19T12:30:56.265984","MEAN_MOTION":15.2760368,"ECCENTRICITY":0.0001459,"INCLINATION":43.001,"RA_OF_ASC_NODE":149.8905,"ARG_OF_PERICENTER":261.1663,"MEAN_ANOMALY":98.9024,"EPHEMERIS_TYPE":0,"CLASSIFICATION_TYPE":"U","NORAD_CAT_ID":67457,"ELEMENT_SET_NO":999,"REV_AT_EPOCH":1107,"BSTAR":0.00052489,"MEAN_MOTION_DOT":0.0001422,"MEAN_MOTION_DDOT":0},{"OBJECT_NAME":"STARLINK-36528","OBJECT_ID":"2026-008P","EPOCH":"2026-03-19T13:02:11.395680","MEAN_MOTION":15.27581706,"ECCENTRICITY":0.0001353,"INCLINATION":42.9985,"RA_OF_ASC_NODE":149.1788,"ARG_OF_PERICENTER":268.6739,"MEAN_ANOMALY":91.3957,"EPHEMERIS_TYPE":0,"CLASSIFICATION_TYPE":"U","NORAD_CAT_ID":67458,"ELEMENT_SET_NO":999,"REV_AT_EPOCH":1108,"BSTAR":0.00068554,"MEAN_MOTION_DOT":0.00018651,"MEAN_MOTION_DDOT":0},{"OBJECT_NAME":"STARLINK-36546","OBJECT_ID":"2026-008Q","EPOCH":"2026-03-18T13:18:57.539232","MEAN_MOTION":15.27592223,"ECCENTRICITY":0.0001272,"INCLINATION":42.9998,"RA_OF_ASC_NODE":155.5365,"ARG_OF_PERICENTER":294.0634,"MEAN_ANOMALY":66.0084,"EPHEMERIS_TYPE":0,"CLASSIFICATION_TYPE":"U","NORAD_CAT_ID":67459,"ELEMENT_SET_NO":999,"REV_AT_EPOCH":1092,"BSTAR":0.00072445,"MEAN_MOTION_DOT":0.00019734,"MEAN_MOTION_DDOT":0},{"OBJECT_NAME":"STARLINK-36523","OBJECT_ID":"2026-008R","EPOCH":"2026-03-19T14:16:12.239904","MEAN_MOTION":15.27591645,"ECCENTRICITY":0.0001679,"INCLINATION":43.0027,"RA_OF_ASC_NODE":149.5793,"ARG_OF_PERICENTER":261.3665,"MEAN_ANOMALY":98.6996,"EPHEMERIS_TYPE":0,"CLASSIFICATION_TYPE":"U","NORAD_CAT_ID":67460,"ELEMENT_SET_NO":999,"REV_AT_EPOCH":1108,"BSTAR":0.00059113,"MEAN_MOTION_DOT":0.00016046,"MEAN_MOTION_DDOT":0},{"OBJECT_NAME":"STARLINK-36522","OBJECT_ID":"2026-008S","EPOCH":"2026-03-18T22:03:11.569824","MEAN_MOTION":15.27572813,"ECCENTRICITY":2.156e-5,"INCLINATION":43.0002,"RA_OF_ASC_NODE":153.1104,"ARG_OF_PERICENTER":357.6892,"MEAN_ANOMALY":2.3958,"EPHEMERIS_TYPE":0,"CLASSIFICATION_TYPE":"U","NORAD_CAT_ID":67461,"ELEMENT_SET_NO":999,"REV_AT_EPOCH":1098,"BSTAR":0.00090689425,"MEAN_MOTION_DOT":0.00024772,"MEAN_MOTION_DDOT":0},{"OBJECT_NAME":"STARLINK-36504","OBJECT_ID":"2026-008T","EPOCH":"2026-03-19T13:39:11.637216","MEAN_MOTION":15.27593248,"ECCENTRICITY":0.0001364,"INCLINATION":43.0015,"RA_OF_ASC_NODE":149.377,"ARG_OF_PERICENTER":276.5329,"MEAN_ANOMALY":83.5367,"EPHEMERIS_TYPE":0,"CLASSIFICATION_TYPE":"U","NORAD_CAT_ID":67462,"ELEMENT_SET_NO":999,"REV_AT_EPOCH":1108,"BSTAR":0.00063419,"MEAN_MOTION_DOT":0.00017237,"MEAN_MOTION_DDOT":0},{"OBJECT_NAME":"STARLINK-36505","OBJECT_ID":"2026-008U","EPOCH":"2026-03-18T21:52:05.143296","MEAN_MOTION":15.27586014,"ECCENTRICITY":5.373e-5,"INCLINATION":42.9978,"RA_OF_ASC_NODE":153.0396,"ARG_OF_PERICENTER":13.56,"MEAN_ANOMALY":346.5266,"EPHEMERIS_TYPE":0,"CLASSIFICATION_TYPE":"U","NORAD_CAT_ID":67463,"ELEMENT_SET_NO":999,"REV_AT_EPOCH":1098,"BSTAR":0.00039298556,"MEAN_MOTION_DOT":0.0001057,"MEAN_MOTION_DDOT":0},{"OBJECT_NAME":"STARLINK-36421","OBJECT_ID":"2026-008V","EPOCH":"2026-03-19T14:41:53.790432","MEAN_MOTION":15.2757853,"ECCENTRICITY":0.0001501,"INCLINATION":43.0005,"RA_OF_ASC_NODE":148.8498,"ARG_OF_PERICENTER":272.9767,"MEAN_ANOMALY":87.0913,"EPHEMERIS_TYPE":0,"CLASSIFICATION_TYPE":"U","NORAD_CAT_ID":67464,"ELEMENT_SET_NO":999,"REV_AT_EPOCH":1109,"BSTAR":0.00048302,"MEAN_MOTION_DOT":0.00013053,"MEAN_MOTION_DDOT":0},{"OBJECT_NAME":"STARLINK-36437","OBJECT_ID":"2026-008W","EPOCH":"2026-03-19T14:52:46.417152","MEAN_MOTION":15.27607821,"ECCENTRICITY":0.0002007,"INCLINATION":43.0025,"RA_OF_ASC_NODE":148.8988,"ARG_OF_PERICENTER":249.9682,"MEAN_ANOMALY":110.0953,"EPHEMERIS_TYPE":0,"CLASSIFICATION_TYPE":"U","NORAD_CAT_ID":67465,"ELEMENT_SET_NO":999,"REV_AT_EPOCH":1109,"BSTAR":0.0015325,"MEAN_MOTION_DOT":0.00042186,"MEAN_MOTION_DDOT":0},{"OBJECT_NAME":"STARLINK-36520","OBJECT_ID":"2026-008X","EPOCH":"2026-03-18T14:49:24.533184","MEAN_MOTION":15.2759666,"ECCENTRICITY":0.0001567,"INCLINATION":43.0014,"RA_OF_ASC_NODE":155.1472,"ARG_OF_PERICENTER":260.095,"MEAN_ANOMALY":99.9725,"EPHEMERIS_TYPE":0,"CLASSIFICATION_TYPE":"U","NORAD_CAT_ID":67466,"ELEMENT_SET_NO":999,"REV_AT_EPOCH":1093,"BSTAR":0.00073416,"MEAN_MOTION_DOT":0.00020006,"MEAN_MOTION_DDOT":0}]
